NORAD_CAT_ID,OBJECT_NAME,OBJECT_TYPE,EPOCH,MEAN_MOTION,ECCENTRICITY,INCLINATION,RA_OF_ASC_NODE,ARG_OF_PERICENTER,MEAN_ANOMALY,BSTAR,MEAN_MOTION_DOT,MEAN_MOTION_DDOT,TLE_LINE0,TLE_LINE1,TLE_LINE2,SEMIMAJOR_AXIS,PERIOD,APOGEE,PERIGEE,DECAYED
53620.0,STARLINK-4615,PAYLOAD,2023-04-03 18:17:34,15.08843315,0.0001309,53.2178,1.5433,102.5866,257.5273,0.00011328,1.516e-05,0.0,0 STARLINK-4615,1 53620U 22104AJ  23093.76221019  .00001516  00000-0  11328-3 0  9991,2 53620  53.2178   1.5433 0001309 102.5866 257.5273 15.08843315 33398,6917.87,95.437,540.641,538.83,0.0
53620.0,STARLINK-4615,PAYLOAD,2023-04-03 21:28:21,15.08842887,0.0001189,53.2174,0.9483,106.5167,253.5956,0.00017941,2.569e-05,0.0,0 STARLINK-4615,1 53620U 22104AJ  23093.89469059  .00002569  00000-0  17941-3 0  9999,2 53620  53.2174   0.9483 0001189 106.5167 253.5956 15.08842887 34091,6917.872,95.437,540.559,538.914,0.0
53620.0,STARLINK-4615,PAYLOAD,2023-04-04 05:25:16,15.08853701,0.000105,53.2168,359.462,96.3083,263.8028,0.00087279,0.00013635,0.0,0 STARLINK-4615,1 53620U 22104AJ  23094.22588925  .00013635  00000-0  87279-3 0  9998,2 53620  53.2168 359.4620 0001050  96.3083 263.8028 15.08853701 34146,6917.839,95.437,540.43,538.977,0.0
53620.0,STARLINK-4615,PAYLOAD,2023-04-04 21:19:08,15.08842253,0.0001431,53.217,356.4851,119.4961,240.6174,0.00018305,2.627e-05,0.0,0 STARLINK-4615,1 53620U 22104AJ  23094.88829013  .00002627  00000-0  18305-3 0  9999,2 53620  53.2170 356.4851 0001431 119.4961 240.6174 15.08842253 34243,6917.874,95.437,540.728,538.749,0.0
53620.0,STARLINK-4615,PAYLOAD,2023-04-05 02:05:17,15.0885166,0.0001098,53.2173,355.5953,100.2836,259.828,0.00038551,5.855e-05,0.0,0 STARLINK-4615,1 53620U 22104AJ  23095.08700660  .00005855  00000-0  38551-3 0  9999,2 53620  53.2173 355.5953 0001098 100.2836 259.8280 15.08851660 33596,6917.845,95.437,540.469,538.95,0.0
53620.0,STARLINK-4615,PAYLOAD,2023-04-05 21:09:55,15.08843972,0.0001051,53.2162,352.0285,101.5275,258.5835,0.00025942,3.844e-05,0.0,0 STARLINK-4615,1 53620U 22104AJ  23095.88188943  .00003844  00000-0  25942-3 0  9997,2 53620  53.2162 352.0285 0001051 101.5275 258.5835 15.08843972 33717,6917.868,95.437,540.46,539.006,0.0
53620.0,STARLINK-4615,PAYLOAD,2023-04-06 01:56:04,15.08846718,0.0001033,53.2161,351.1365,105.3571,254.7535,0.00038858,5.903e-05,0.0,0 STARLINK-4615,1 53620U 22104AJ  23096.08060893  .00005903  00000-0  38858-3 0  9991,2 53620  53.2161 351.1365 0001033 105.3571 254.7535 15.08846718 34421,6917.86,95.437,540.439,539.01,0.0
53620.0,STARLINK-4615,PAYLOAD,2023-04-06 19:25:19,15.08834502,0.0001288,53.2167,347.8673,98.7215,261.3923,9.9013e-05,1.288e-05,0.0,0 STARLINK-4615,1 53620U 22104AJ  23096.80925324  .00001288  00000-0  99013-4 0  9993,2 53620  53.2167 347.8673 0001288  98.7215 261.3923 15.08834502 33852,6917.897,95.438,540.653,538.871,0.0
53620.0,STARLINK-4615,PAYLOAD,2023-04-07 01:46:52,15.08840782,0.0001213,53.2157,346.6777,100.177,259.9359,0.00016724,2.375e-05,0.0,0 STARLINK-4615,1 53620U 22104AJ  23097.07421433  .00002375  00000-0  16724-3 0  9990,2 53620  53.2157 346.6777 0001213 100.1770 259.9359 15.08840782 34578,6917.878,95.438,540.582,538.904,0.0
53620.0,STARLINK-4615,PAYLOAD,2023-04-07 20:51:29,15.08843809,0.0001192,53.2153,343.1087,70.0928,290.0193,0.00018873,2.717e-05,0.0,0 STARLINK-4615,1 53620U 22104AJ  23097.86909417  .00002717  00000-0  18873-3 0  9997,2 53620  53.2153 343.1087 0001192  70.0928 290.0193 15.08843809 34010,6917.869,95.437,540.558,538.909,0.0
53620.0,STARLINK-4615,PAYLOAD,2023-04-08 01:37:38,15.08851738,0.0001063,53.216,342.2161,85.8337,274.2776,0.00032325,4.862e-05,0.0,0 STARLINK-4615,1 53620U 22104AJ  23098.06781035  .00004862  00000-0  32325-3 0  9995,2 53620  53.2160 342.2161 0001063  85.8337 274.2776 15.08851738 34040,6917.845,95.437,540.445,538.974,0.0
53620.0,STARLINK-4615,PAYLOAD,2023-04-08 15:56:07,15.08837821,0.0001258,53.2154,339.5403,75.2269,284.8863,5.3599e-05,5.65e-06,0.0,0 STARLINK-4615,1 53620U 22104AJ  23098.66397690  .00000565  00000-0  53599-4 0  9994,2 53620  53.2154 339.5403 0001258  75.2269 284.8863 15.08837821 34135,6917.887,95.438,540.622,538.882,0.0
53620.0,STARLINK-4615,PAYLOAD,2023-04-09 01:28:26,15.0884155,0.0001236,53.2161,337.7549,84.042,276.0713,0.00014451,2.013e-05,0.0,0 STARLINK-4615,1 53620U 22104AJ  23099.06141692  .00002013  00000-0  14451-3 0  9991,2 53620  53.2161 337.7549 0001236  84.0420 276.0713 15.08841550 34879,6917.876,95.437,540.596,538.886,0.0
53620.0,STARLINK-4615,PAYLOAD,2023-04-09 22:08:27,15.08847046,0.0001399,53.2169,333.8887,90.0452,270.07,0.00023965,3.529e-05,0.0,0 STARLINK-4615,1 53620U 22104AJ  23099.92253656  .00003529  00000-0  23965-3 0  9993,2 53620  53.2169 333.8887 0001399  90.0452 270.0700 15.08847046 34327,6917.859,95.437,540.692,538.756,0.0
53620.0,STARLINK-4615,PAYLOAD,2023-04-10 21:59:13,15.08848883,0.0001341,53.2166,329.4267,95.1492,264.9654,0.00023569,3.466e-05,0.0,0 STARLINK-4615,1 53620U 22104AJ  23100.91613425  .00003466  00000-0  23569-3 0  9999,2 53620  53.2166 329.4267 0001341  95.1492 264.9654 15.08848883 35156,6917.853,95.437,540.646,538.791,0.0
53620.0,STARLINK-4615,PAYLOAD,2023-04-11 01:10:00,15.08850915,0.0001385,53.217,328.8323,95.514,264.601,0.00025529,3.779e-05,0.0,0 STARLINK-4615,1 53620U 22104AJ  23101.04861293  .00003779  00000-0  25529-3 0  9997,2 53620  53.2170 328.8323 0001385  95.5140 264.6010 15.08850915 34497,6917.847,95.437,540.67,538.754,0.0
53620.0,STARLINK-4615,PAYLOAD,2023-04-11 17:03:52,15.0883618,0.0001654,53.2184,325.8629,98.606,261.5119,-2.8414e-05,-7.4e-06,0.0,0 STARLINK-4615,1 53620U 22104AJ  23101.71101948 -.00000740  00000-0 -28414-4 0  9999,2 53620  53.2184 325.8629 0001654  98.6060 261.5119 15.08836180 34597,6917.892,95.438,540.901,538.613,0.0
53620.0,STARLINK-4615,PAYLOAD,2023-04-11 21:50:01,15.08837816,0.0001216,53.2166,324.9664,92.1805,267.9326,2.2764e-05,7.4e-07,0.0,0 STARLINK-4615,1 53620U 22104AJ  23101.90974162  .00000074  00000-0  22764-4 0  9996,2 53620  53.2166 324.9664 0001216  92.1805 267.9326 15.08837816 35303,6917.887,95.438,540.593,538.911,0.0
53620.0,STARLINK-4615,PAYLOAD,2023-04-12 01:00:47,15.0883854,0.0001169,53.216,324.372,89.3479,270.7647,2.5302e-05,1.15e-06,0.0,0 STARLINK-4615,1 53620U 22104AJ  23102.04222133  .00000115  00000-0  25302-4 0  9993,2 53620  53.2160 324.3720 0001169  89.3479 270.7647 15.08838540 35321,6917.885,95.438,540.559,538.941,0.0
53620.0,STARLINK-4615,PAYLOAD,2023-04-13 00:51:35,15.08835675,0.0001352,53.2146,319.9109,88.399,271.7157,0.00020537,2.982e-05,0.0,0 STARLINK-4615,1 53620U 22104AJ  23103.03582183  .00002982  00000-0  20537-3 0  9995,2 53620  53.2146 319.9109 0001352  88.3990 271.7157 15.08835675 35476,6917.894,95.438,540.694,538.823,0.0
53620.0,STARLINK-4615,PAYLOAD,2023-04-14 13:25:27,15.08836808,0.0001227,53.2128,313.0725,80.2076,279.9055,8.6488e-05,1.089e-05,0.0,0 STARLINK-4615,1 53620U 22104AJ  23104.55934495  .00001089  00000-0  86488-4 0  9995,2 53620  53.2128 313.0725 0001227  80.2076 279.9055 15.08836808 35704,6917.89,95.438,540.604,538.906,0.0
53620.0,STARLINK-4615,PAYLOAD,2023-04-15 13:16:14,15.08835249,0.0001162,53.2148,308.6104,87.3887,272.7238,5.5039e-05,5.88e-06,0.0,0 STARLINK-4615,1 53620U 22104AJ  23105.55294836  .00000588  00000-0  55039-4 0  9995,2 53620  53.2148 308.6104 0001162  87.3887 272.7238 15.08835249 35176,6917.895,95.438,540.564,538.956,0.0
53620.0,STARLINK-4615,PAYLOAD,2023-04-15 21:13:10,15.08843632,0.0001109,53.2135,307.124,83.8341,276.2777,6.8457e-05,8.02e-06,0.0,0 STARLINK-4615,1 53620U 22104AJ  23105.88414372  .00000802  00000-0  68457-4 0  9997,2 53620  53.2135 307.1240 0001109  83.8341 276.2777 15.08843632 35907,6917.869,95.437,540.501,538.967,0.0
53620.0,STARLINK-4615,PAYLOAD,2023-04-15 22:48:33,15.08844676,0.0001085,53.214,306.8268,84.3494,275.7622,7.3474e-05,8.82e-06,0.0,0 STARLINK-4615,1 53620U 22104AJ  23105.95038330  .00000882  00000-0  73474-4 0  9994,2 53620  53.2140 306.8268 0001085  84.3494 275.7622 15.08844676 35235,6917.866,95.437,540.482,538.981,0.0
53620.0,STARLINK-4615,PAYLOAD,2023-04-16 11:31:38,15.08837534,0.0001171,53.2135,304.447,89.1028,271.0098,0.00011334,1.516e-05,0.0,0 STARLINK-4615,1 53620U 22104AJ  23106.48030913  .00001516  00000-0  11334-3 0  9993,2 53620  53.2135 304.4470 0001171  89.1028 271.0098 15.08837534 35310,6917.888,95.438,540.563,538.943,0.0
53620.0,STARLINK-4615,PAYLOAD,2023-04-16 19:28:34,15.08842186,0.0001094,53.2154,302.9604,82.1186,277.993,9.7995e-05,1.272e-05,0.0,0 STARLINK-4615,1 53620U 22104AJ  23106.81150735  .00001272  00000-0  97995-4 0  9992,2 53620  53.2154 302.9604 0001094  82.1186 277.9930 15.08842186 36045,6917.874,95.437,540.496,538.982,0.0
53620.0,STARLINK-4615,PAYLOAD,2023-04-17 12:57:48,15.0884259,0.0001035,53.2152,299.6894,85.8529,274.2582,0.00012253,1.663e-05,0.0,0 STARLINK-4615,1 53620U 22104AJ  23107.54014833  .00001663  00000-0  12253-3 0  9998,2 53620  53.2152 299.6894 0001035  85.8529 274.2582 15.08842590 35470,6917.872,95.437,540.453,539.021,0.0
53620.0,STARLINK-4615,PAYLOAD,2023-04-17 19:19:21,15.08850303,0.000104,53.2156,298.4996,84.5503,275.5608,0.00020799,3.025e-05,0.0,0 STARLINK-4615,1 53620U 22104AJ  23107.80510419  .00003025  00000-0  20799-3 0  9996,2 53620  53.2156 298.4996 0001040  84.5503 275.5608 15.08850303 36192,6917.849,95.437,540.433,538.994,0.0
53620.0,STARLINK-4615,PAYLOAD,2023-04-18 11:13:12,15.08842461,0.0001055,53.2146,295.5269,72.902,287.2088,0.00015196,2.132e-05,0.0,0 STARLINK-4615,1 53620U 22104AJ  23108.46750782  .00002132  00000-0  15196-3 0  9991,2 53620  53.2146 295.5269 0001055  72.9020 287.2088 15.08842461 36292,6917.873,95.437,540.468,539.008,0.0
53620.0,STARLINK-4615,PAYLOAD,2023-04-18 19:10:08,15.08844489,7.51e-05,53.2148,294.0397,78.1651,281.9425,0.00012857,1.759e-05,0.0,0 STARLINK-4615,1 53620U 22104AJ  23108.79870591  .00001759  00000-0  12857-3 0  9993,2 53620  53.2148 294.0397 0000751  78.1651 281.9425 15.08844489 35668,6917.867,95.437,540.251,539.212,0.0
